start=new Date('2021-10-12T00:00:00.000Z').valueOf();
sats=[{"RCS_SIZE":"LARGE","MEAN_ANOMALY":"271.2232","PERIAPSIS":"546.647","DECAY_DATE":null,"NORAD_CAT_ID":"47899","COUNTRY_CODE":"US","TLE_LINE1":"1 47899U 21021AR  21284.72582931  .00000100  00000-0  25566-4 0  9996","MEAN_MOTION_DOT":"0.00000100","GP_ID":"186929356","MEAN_ELEMENT_THEORY":"SGP4","INCLINATION":"53.0557","CENTER_NAME":"EARTH","ARG_OF_PERICENTER":"88.8854","MEAN_MOTION_DDOT":"0.0000000000000","FILE":"3157563","PERIOD":"95.592","ELEMENT_SET_NO":"999","TLE_LINE2":"2 47899  53.0557 289.0217 0000843  88.8854 271.2232 15.06394380 33687","TIME_SYSTEM":"UTC","APOAPSIS":"547.815","BSTAR":"0.00002556600000","EPHEMERIS_TYPE":"0","CLASSIFICATION_TYPE":"U","OBJECT_ID":"2021-021AR","RA_OF_ASC_NODE":"289.0217","EPOCH":"2021-10-11T17:25:11.652384","ECCENTRICITY":"0.00008430","LAUNCH_DATE":"2021-03-14","MEAN_MOTION":"15.06394380","SITE":"AFETR","OBJECT_NAME":"STARLINK-2359","SEMIMAJOR_AXIS":"6925.366","REV_AT_EPOCH":"3368","REF_FRAME":"TEME","OBJECT_TYPE":"PAYLOAD"},{"BSTAR":"0.00006628200000","EPHEMERIS_TYPE":"0","CLASSIFICATION_TYPE":"U","OBJECT_ID":"2021-021AS","RA_OF_ASC_NODE":"300.4049","ECCENTRICITY":"0.00007280","EPOCH":"2021-10-11T10:01:57.525888","LAUNCH_DATE":"2021-03-14","SITE":"AFETR","MEAN_MOTION":"15.06397185","FILE":"3157068","MEAN_MOTION_DDOT":"0.0000000000000","PERIOD":"95.592","ELEMENT_SET_NO":"999","TLE_LINE2":"2 47900  53.0566 300.4049 0000728 106.4012 253.7057 15.06397185 33491","TIME_SYSTEM":"UTC","APOAPSIS":"547.726","REF_FRAME":"TEME","OBJECT_TYPE":"PAYLOAD","OBJECT_NAME":"STARLINK-2360","SEMIMAJOR_AXIS":"6925.357","REV_AT_EPOCH":"3349","MEAN_ANOMALY":"253.7057","RCS_SIZE":"LARGE","MEAN_ELEMENT_THEORY":"SGP4","INCLINATION":"53.0566","CENTER_NAME":"EARTH","ARG_OF_PERICENTER":"106.4012","PERIAPSIS":"546.718","DECAY_DATE":null,"NORAD_CAT_ID":"47900","COUNTRY_CODE":"US","TLE_LINE1":"1 47900U 21021AS  21284.41802692  .00000706  00000-0  66282-4 0  9996","MEAN_MOTION_DOT":"0.00000706","GP_ID":"186894904"},{"REF_FRAME":"TEME","OBJECT_TYPE":"PAYLOAD","OBJECT_NAME":"STARLINK-2361","REV_AT_EPOCH":"3366","SEMIMAJOR_AXIS":"6925.371","EPHEMERIS_TYPE":"0","BSTAR":"0.00004409400000","OBJECT_ID":"2021-021AT","CLASSIFICATION_TYPE":"U","EPOCH":"2021-10-11T16:57:17.469216","ECCENTRICITY":"0.00010700","RA_OF_ASC_NODE":"289.1142","MEAN_MOTION":"15.06392576","SITE":"AFETR","LAUNCH_DATE":"2021-03-14","FILE":"3157563","MEAN_MOTION_DDOT":"0.0000000000000","TLE_LINE2":"2 47901  53.0500 289.1142 0001070  78.4760 281.6349 15.06392576 33668","PERIOD":"95.593","ELEMENT_SET_NO":"999","TIME_SYSTEM":"UTC","APOAPSIS":"547.977","MEAN_ELEMENT_THEORY":"SGP4","INCLINATION":"53.0500","CENTER_NAME":"EARTH","ARG_OF_PERICENTER":"78.4760","DECAY_DATE":null,"PERIAPSIS":"546.495","COUNTRY_CODE":"US","NORAD_CAT_ID":"47901","MEAN_MOTION_DOT":"0.00000375","TLE_LINE1":"1 47901U 21021AT  21284.70645219  .00000375  00000-0  44094-4 0  9998","GP_ID":"186930358","MEAN_ANOMALY":"281.6349","RCS_SIZE":"LARGE"},{"OBJECT_TYPE":"PAYLOAD","REF_FRAME":"TEME","OBJECT_NAME":"STARLINK-2362","REV_AT_EPOCH":"3344","SEMIMAJOR_AXIS":"6925.329","OBJECT_ID":"2021-021AU","CLASSIFICATION_TYPE":"U","EPHEMERIS_TYPE":"0","BSTAR":"0.00000308310000","MEAN_MOTION":"15.06406263","SITE":"AFETR","LAUNCH_DATE":"2021-03-14","ECCENTRICITY":"0.00012330","EPOCH":"2021-10-11T08:47:40.549920","RA_OF_ASC_NODE":"310.6262","TLE_LINE2":"2 47902  53.0549 310.6262 0001233  76.8665 283.2461 15.06406263 33440","ELEMENT_SET_NO":"999","PERIOD":"95.592","MEAN_MOTION_DDOT":"0.0000000000000","FILE":"3157068","APOAPSIS":"548.048","TIME_SYSTEM":"UTC","MEAN_ELEMENT_THEORY":"SGP4","ARG_OF_PERICENTER":"76.8665","INCLINATION":"53.0549","CENTER_NAME":"EARTH","COUNTRY_CODE":"US","NORAD_CAT_ID":"47902","DECAY_DATE":null,"PERIAPSIS":"546.340","GP_ID":"186895888","MEAN_MOTION_DOT":"-0.00000235","TLE_LINE1":"1 47902U 21021AU  21284.36644155 -.00000235  00000-0  30831-5 0  9990","MEAN_ANOMALY":"283.2461","RCS_SIZE":"LARGE"},{"REF_FRAME":"TEME","OBJECT_TYPE":"PAYLOAD","SEMIMAJOR_AXIS":"6925.368","REV_AT_EPOCH":"3401","OBJECT_NAME":"STARLINK-2363","RA_OF_ASC_NODE":"289.0403","ECCENTRICITY":"0.00008510","EPOCH":"2021-10-11T17:19:53.303808","LAUNCH_DATE":"2021-03-14","MEAN_MOTION":"15.06393551","SITE":"AFETR","BSTAR":"0.00001566400000","EPHEMERIS_TYPE":"0","CLASSIFICATION_TYPE":"U","OBJECT_ID":"2021-021AV","TIME_SYSTEM":"UTC","APOAPSIS":"547.823","MEAN_MOTION_DDOT":"0.0000000000000","FILE":"3157563","PERIOD":"95.593","ELEMENT_SET_NO":"999","TLE_LINE2":"2 47903  53.0560 289.0403 0000851  67.0108 293.0970 15.06393551 34012","INCLINATION":"53.0560","CENTER_NAME":"EARTH","ARG_OF_PERICENTER":"67.0108","MEAN_ELEMENT_THEORY":"SGP4","TLE_LINE1":"1 47903U 21021AV  21284.72214472 -.00000048  00000-0  15664-4 0  9994","MEAN_MOTION_DOT":"-0.00000048","GP_ID":"186928857","PERIAPSIS":"546.644","DECAY_DATE":null,"NORAD_CAT_ID":"47903","COUNTRY_CODE":"US","MEAN_ANOMALY":"293.0970","RCS_SIZE":"LARGE"},{"MEAN_ANOMALY":"276.9839","RCS_SIZE":"LARGE","ARG_OF_PERICENTER":"83.1271","INCLINATION":"53.0551","CENTER_NAME":"EARTH","MEAN_ELEMENT_THEORY":"SGP4","GP_ID":"186929607","MEAN_MOTION_DOT":"-0.00000570","TLE_LINE1":"1 47904U 21021AW  21284.71844840 -.00000570  00000-0 -19378-4 0  9999","COUNTRY_CODE":"US","NORAD_CAT_ID":"47904","DECAY_DATE":null,"PERIAPSIS":"546.494","SITE":"AFETR","MEAN_MOTION":"15.06396157","LAUNCH_DATE":"2021-03-14","ECCENTRICITY":"0.00010560","EPOCH":"2021-10-11T17:14:33.941760","RA_OF_ASC_NODE":"289.0506","OBJECT_ID":"2021-021AW","CLASSIFICATION_TYPE":"U","EPHEMERIS_TYPE":"0","BSTAR":"-0.00001937800000","APOAPSIS":"547.957","TIME_SYSTEM":"UTC","TLE_LINE2":"2 47904  53.0551 289.0506 0001056  83.1271 276.9839 15.06396157 33653","PERIOD":"95.592","ELEMENT_SET_NO":"999","FILE":"3157563","MEAN_MOTION_DDOT":"0.0000000000000","OBJECT_TYPE":"PAYLOAD","REF_FRAME":"TEME","REV_AT_EPOCH":"3365","SEMIMAJOR_AXIS":"6925.360","OBJECT_NAME":"STARLINK-2364"},{"DECAY_DATE":null,"PERIAPSIS":"546.696","COUNTRY_CODE":"US","NORAD_CAT_ID":"47905","MEAN_MOTION_DOT":"0.00000272","TLE_LINE1":"1 47905U 21021AX  21284.71477099  .00000272  00000-0  37152-4 0  9995","GP_ID":"186929859","MEAN_ELEMENT_THEORY":"SGP4","INCLINATION":"53.0555","CENTER_NAME":"EARTH","ARG_OF_PERICENTER":"86.5326","RCS_SIZE":"LARGE","MEAN_ANOMALY":"273.5751","OBJECT_NAME":"STARLINK-2365","REV_AT_EPOCH":"3378","SEMIMAJOR_AXIS":"6925.364","REF_FRAME":"TEME","OBJECT_TYPE":"PAYLOAD","MEAN_MOTION_DDOT":"0.0000000000000","FILE":"3157563","TLE_LINE2":"2 47905  53.0555 289.0699 0000770  86.5326 273.5751 15.06394981 33784","PERIOD":"95.592","ELEMENT_SET_NO":"999","TIME_SYSTEM":"UTC","APOAPSIS":"547.762","EPHEMERIS_TYPE":"0","BSTAR":"0.00003715200000","OBJECT_ID":"2021-021AX","CLASSIFICATION_TYPE":"U","ECCENTRICITY":"0.00007700","EPOCH":"2021-10-11T17:09:16.213536","RA_OF_ASC_NODE":"289.0699","MEAN_MOTION":"15.06394981","SITE":"AFETR","LAUNCH_DATE":"2021-03-14"},{"RCS_SIZE":"LARGE","MEAN_ANOMALY":"54.9959","NORAD_CAT_ID":"47906","COUNTRY_CODE":"US","PERIAPSIS":"350.020","DECAY_DATE":null,"GP_ID":"186930609","TLE_LINE1":"1 47906U 21021AY  21284.65196545  .00024628  00000-0  19250-3 0  9992","MEAN_MOTION_DOT":"0.00024628","MEAN_ELEMENT_THEORY":"SGP4","ARG_OF_PERICENTER":"305.0417","INCLINATION":"53.0515","CENTER_NAME":"EARTH","ELEMENT_SET_NO":"999","PERIOD":"91.632","TLE_LINE2":"2 47906  53.0515 254.1034 0006831 305.0417  54.9959 15.71497429 34269","MEAN_MOTION_DDOT":"0.0000000000000","FILE":"3157563","APOAPSIS":"359.218","TIME_SYSTEM":"UTC","CLASSIFICATION_TYPE":"U","OBJECT_ID":"2021-021AY","BSTAR":"0.00019250000000","EPHEMERIS_TYPE":"0","LAUNCH_DATE":"2021-03-14","MEAN_MOTION":"15.71497429","SITE":"AFETR","RA_OF_ASC_NODE":"254.1034","EPOCH":"2021-10-11T15:38:49.814880","ECCENTRICITY":"0.00068310","OBJECT_NAME":"STARLINK-2366","SEMIMAJOR_AXIS":"6732.754","REV_AT_EPOCH":"3426","OBJECT_TYPE":"PAYLOAD","REF_FRAME":"TEME"},{"MEAN_ELEMENT_THEORY":"SGP4","INCLINATION":"53.0549","CENTER_NAME":"EARTH","ARG_OF_PERICENTER":"103.6420","PERIAPSIS":"546.506","DECAY_DATE":null,"NORAD_CAT_ID":"47907","COUNTRY_CODE":"US","TLE_LINE1":"1 47907U 21021AZ  21284.45859211  .00001515  00000-0  12054-3 0  9992","MEAN_MOTION_DOT":"0.00001515","GP_ID":"186896144","MEAN_ANOMALY":"256.4683","RCS_SIZE":"LARGE","REF_FRAME":"TEME","OBJECT_TYPE":"PAYLOAD","OBJECT_NAME":"STARLINK-2367","SEMIMAJOR_AXIS":"6925.347","REV_AT_EPOCH":"3331","BSTAR":"0.00012054000000","EPHEMERIS_TYPE":"0","CLASSIFICATION_TYPE":"U","OBJECT_ID":"2021-021AZ","RA_OF_ASC_NODE":"310.2201","EPOCH":"2021-10-11T11:00:22.358304","ECCENTRICITY":"0.00010190","LAUNCH_DATE":"2021-03-14","SITE":"AFETR","MEAN_MOTION":"15.06400531","FILE":"3157068","MEAN_MOTION_DDOT":"0.0000000000000","ELEMENT_SET_NO":"999","PERIOD":"95.592","TLE_LINE2":"2 47907  53.0549 310.2201 0001019 103.6420 256.4683 15.06400531 33310","TIME_SYSTEM":"UTC","APOAPSIS":"547.918"},{"MEAN_ANOMALY":"270.5895","RCS_SIZE":"LARGE","ARG_OF_PERICENTER":"89.5210","CENTER_NAME":"EARTH","INCLINATION":"53.0562","MEAN_ELEMENT_THEORY":"SGP4","GP_ID":"186900356","TLE_LINE1":"1 47908U 21021BA  21284.46596121  .00001528  00000-0  12144-3 0  9996","MEAN_MOTION_DOT":"0.00001528","NORAD_CAT_ID":"47908","COUNTRY_CODE":"US","PERIAPSIS":"546.490","DECAY_DATE":null,"LAUNCH_DATE":"2021-03-14","SITE":"AFETR","MEAN_MOTION":"15.06406804","RA_OF_ASC_NODE":"310.1854","ECCENTRICITY":"0.00010140","EPOCH":"2021-10-11T11:10:59.048544","CLASSIFICATION_TYPE":"U","OBJECT_ID":"2021-021BA","BSTAR":"0.00012144000000","EPHEMERIS_TYPE":"0","APOAPSIS":"547.895","TIME_SYSTEM":"UTC","ELEMENT_SET_NO":"999","PERIOD":"95.592","TLE_LINE2":"2 47908  53.0562 310.1854 0001014  89.5210 270.5895 15.06406804 32874","FILE":"3157209","MEAN_MOTION_DDOT":"0.0000000000000","OBJECT_TYPE":"PAYLOAD","REF_FRAME":"TEME","REV_AT_EPOCH":"3287","SEMIMAJOR_AXIS":"6925.328","OBJECT_NAME":"STARLINK-2368"}];
